NORAD_CAT_ID,OBJECT_NAME,OBJECT_TYPE,EPOCH,MEAN_MOTION,ECCENTRICITY,INCLINATION,RA_OF_ASC_NODE,ARG_OF_PERICENTER,MEAN_ANOMALY,BSTAR,MEAN_MOTION_DOT,MEAN_MOTION_DDOT,TLE_LINE0,TLE_LINE1,TLE_LINE2,SEMIMAJOR_AXIS,PERIOD,APOGEE,PERIGEE,DECAYED
51126.0,STARLINK-3386,PAYLOAD,2023-02-21 23:37:49,15.08844791,0.0001554,53.2123,249.7679,92.4529,267.6641,0.00044217,6.757e-05,0.0,0 STARLINK-3386,1 51126U 22005Y   23052.98460269  .00006757  00000-0  44217-3 0  9996,2 51126  53.2123 249.7679 0001554  92.4529 267.6641 15.08844791 62022,6917.866,95.437,540.806,538.656,0.0
51126.0,STARLINK-3386,PAYLOAD,2023-02-22 13:56:18,15.08838147,0.0001729,53.2116,247.0901,96.9304,263.1885,6.1636e-05,6.93e-06,0.0,0 STARLINK-3386,1 51126U 22005Y   23053.58076422  .00000693  00000-0  61636-4 0  9995,2 51126  53.2116 247.0901 0001729  96.9304 263.1885 15.08838147 61003,6917.886,95.438,540.947,538.555,0.0
51126.0,STARLINK-3386,PAYLOAD,2023-02-22 21:53:13,15.08842475,0.0001658,53.2113,245.6029,97.6762,262.4418,0.00010698,1.415e-05,0.0,0 STARLINK-3386,1 51126U 22005Y   23053.91196234  .00001415  00000-0  10698-3 0  9990,2 51126  53.2113 245.6029 0001658  97.6762 262.4418 15.08842475 61050,6917.873,95.437,540.885,538.591,0.0
51126.0,STARLINK-3386,PAYLOAD,2023-02-23 12:11:41,15.088431,0.000185,53.2124,242.9263,97.6742,262.446,0.00011237,1.501e-05,0.0,0 STARLINK-3386,1 51126U 22005Y   23054.50812324  .00001501  00000-0  11237-3 0  9997,2 51126  53.2124 242.9263 0001850  97.6742 262.4460 15.08843100 61147,6917.871,95.437,541.016,538.456,0.0
51126.0,STARLINK-3386,PAYLOAD,2023-02-23 21:44:00,15.08847195,0.0001587,53.2138,241.1434,93.4543,266.6631,0.00012833,1.755e-05,0.0,0 STARLINK-3386,1 51126U 22005Y   23054.90556090  .00001755  00000-0  12833-3 0  9990,2 51126  53.2138 241.1434 0001587  93.4543 266.6631 15.08847195 62317,6917.858,95.437,540.821,538.626,0.0
51126.0,STARLINK-3386,PAYLOAD,2023-02-24 12:02:29,15.08838719,0.0001996,53.214,238.4667,87.5244,272.5977,0.00010291,1.35e-05,0.0,0 STARLINK-3386,1 51126U 22005Y   23055.50172735  .00001350  00000-0  10291-3 0  9994,2 51126  53.2140 238.4667 0001996  87.5244 272.5977 15.08838719 62404,6917.884,95.438,541.13,538.368,0.0
51126.0,STARLINK-3386,PAYLOAD,2023-02-24 21:34:48,15.08837912,0.0001491,53.2139,236.6829,89.0755,271.0408,5.7762e-05,6.31e-06,0.0,0 STARLINK-3386,1 51126U 22005Y   23055.89916742  .00000631  00000-0  57762-4 0  9996,2 51126  53.2139 236.6829 0001491  89.0755 271.0408 15.08837912 61356,6917.887,95.438,540.783,538.72,0.0
51126.0,STARLINK-3386,PAYLOAD,2023-02-25 05:31:43,15.08841509,0.0001459,53.2138,235.1965,87.3083,272.8076,0.00013844,1.916e-05,0.0,0 STARLINK-3386,1 51126U 22005Y   23056.23036659  .00001916  00000-0  13844-3 0  9994,2 51126  53.2138 235.1965 0001459  87.3083 272.8076 15.08841509 61402,6917.876,95.437,540.75,538.731,0.0
51126.0,STARLINK-3386,PAYLOAD,2023-02-25 18:14:48,15.08844896,0.0001466,53.2139,232.8169,89.0807,271.0353,0.00019901,2.881e-05,0.0,0 STARLINK-3386,1 51126U 22005Y   23056.76028582  .00002881  00000-0  19901-3 0  9990,2 51126  53.2139 232.8169 0001466  89.0807 271.0353 15.08844896 62596,6917.865,95.437,540.745,538.716,0.0
51126.0,STARLINK-3386,PAYLOAD,2023-02-25 21:25:34,15.08848121,0.000147,53.2141,232.2221,88.7289,271.3871,0.00030789,4.617e-05,0.0,0 STARLINK-3386,1 51126U 22005Y   23056.89276536  .00004617  00000-0  30789-3 0  9994,2 51126  53.2141 232.2221 0001470  88.7289 271.3871 15.08848121 61500,6917.856,95.437,540.737,538.704,0.0
51126.0,STARLINK-3386,PAYLOAD,2023-02-26 11:44:03,15.08843649,0.0001532,53.214,229.5455,86.3915,273.7253,0.00027083,4.025e-05,0.0,0 STARLINK-3386,1 51126U 22005Y   23057.48892752  .00004025  00000-0  27083-3 0  9990,2 51126  53.2140 229.5455 0001532  86.3915 273.7253 15.08843649 61595,6917.869,95.437,540.794,538.674,0.0
51126.0,STARLINK-3386,PAYLOAD,2023-02-26 19:40:58,15.08853576,0.0001396,53.2141,228.0592,85.7914,274.3238,0.00034828,5.261e-05,0.0,0 STARLINK-3386,1 51126U 22005Y   23057.82012208  .00005261  00000-0  34828-3 0  9996,2 51126  53.2141 228.0592 0001396  85.7914 274.3238 15.08853576 62751,6917.839,95.437,540.67,538.738,0.0
51126.0,STARLINK-3386,PAYLOAD,2023-02-26 21:16:21,15.088551,0.0001382,53.2142,227.7617,85.9457,274.1693,0.00036828,5.58e-05,0.0,0 STARLINK-3386,1 51126U 22005Y   23057.88636120  .00005580  00000-0  36828-3 0  9993,2 51126  53.2142 227.7617 0001382  85.9457 274.1693 15.08855100 61651,6917.834,95.437,540.655,538.743,0.0
51126.0,STARLINK-3386,PAYLOAD,2023-02-27 09:59:26,15.08845906,0.0001618,53.2134,225.3824,86.4687,273.6491,0.00015602,2.196e-05,0.0,0 STARLINK-3386,1 51126U 22005Y   23058.41628469  .00002196  00000-0  15602-3 0  9997,2 51126  53.2134 225.3824 0001618  86.4687 273.6491 15.08845906 62844,6917.862,95.437,540.847,538.608,0.0
51126.0,STARLINK-3386,PAYLOAD,2023-02-27 17:56:21,15.08867952,0.0001344,53.2141,223.8955,87.7783,272.3363,0.00058757,9.083e-05,0.0,0 STARLINK-3386,1 51126U 22005Y   23058.74747594  .00009083  00000-0  58757-3 0  9994,2 51126  53.2141 223.8955 0001344  87.7783 272.3363 15.08867952 62891,6917.795,95.436,540.59,538.73,0.0
51126.0,STARLINK-3386,PAYLOAD,2023-02-27 19:31:45,15.08862022,0.0001318,53.2145,223.5984,89.3453,270.769,0.00073053,0.00011364,0.0,0 STARLINK-3386,1 51126U 22005Y   23058.81371845  .00011364  00000-0  73053-3 0  9995,2 51126  53.2145 223.5984 0001318  89.3453 270.7690 15.08862022 61793,6917.813,95.436,540.59,538.766,0.0
51126.0,STARLINK-3386,PAYLOAD,2023-02-28 03:28:41,15.0885364,0.0001429,53.215,222.1129,89.4082,270.7074,0.00042752,6.525e-05,0.0,0 STARLINK-3386,1 51126U 22005Y   23059.14491916  .00006525  00000-0  42752-3 0  9999,2 51126  53.2150 222.1129 0001429  89.4082 270.7074 15.08853640 62958,6917.839,95.437,540.692,538.715,0.0
51126.0,STARLINK-3386,PAYLOAD,2023-02-28 13:01:00,15.08825154,0.0001444,53.2143,220.3276,85.6719,274.4438,-0.00016723,-2.947e-05,0.0,0 STARLINK-3386,1 51126U 22005Y   23059.54236592 -.00002947  00000-0 -16723-3 0  9995,2 51126  53.2143 220.3276 0001444  85.6719 274.4438 15.08825154 61903,6917.926,95.438,540.79,538.792,0.0
51126.0,STARLINK-3386,PAYLOAD,2023-02-28 14:36:23,15.08828062,0.0001382,53.2143,220.0303,82.2017,277.9132,-0.00014395,-2.577e-05,0.0,0 STARLINK-3386,1 51126U 22005Y   23059.60860644 -.00002577  00000-0 -14395-3 0  9995,2 51126  53.2143 220.0303 0001382  82.2017 277.9132 15.08828062 63021,6917.917,95.438,540.738,538.826,0.0
51126.0,STARLINK-3386,PAYLOAD,2023-02-28 19:22:32,15.0883413,0.0001268,53.2143,219.1386,77.0328,283.0806,0.00026586,3.945e-05,0.0,0 STARLINK-3386,1 51126U 22005Y   23059.80732636  .00003945  00000-0  26586-3 0  9999,2 51126  53.2143 219.1386 0001268  77.0328 283.0806 15.08834130 61949,6917.898,95.438,540.641,538.886,0.0
51126.0,STARLINK-3386,PAYLOAD,2023-03-01 20:48:43,15.08839796,0.0001298,53.214,214.3809,73.7256,286.3878,0.00048911,7.505e-05,0.0,0 STARLINK-3386,1 51126U 22005Y   23060.86717294  .00007505  00000-0  48911-3 0  9992,2 51126  53.2140 214.3809 0001298  73.7256 286.3878 15.08839796 62106,6917.881,95.438,540.644,538.848,0.0
51126.0,STARLINK-3386,PAYLOAD,2023-03-02 03:10:16,15.08833072,8.65e-05,53.2135,213.1909,89.6423,270.4668,0.00015746,2.219e-05,0.0,0 STARLINK-3386,1 51126U 22005Y   23061.13213290  .00002219  00000-0  15746-3 0  9997,2 51126  53.2135 213.1909 0000865  89.6423 270.4668 15.08833072 63258,6917.902,95.438,540.365,539.168,0.0
51126.0,STARLINK-3386,PAYLOAD,2023-03-02 14:17:58,15.08840523,0.0001237,53.2132,211.1094,82.4273,277.6859,0.00029513,4.412e-05,0.0,0 STARLINK-3386,1 51126U 22005Y   23061.59581449  .00004412  00000-0  29513-3 0  9995,2 51126  53.2132 211.1094 0001237  82.4273 277.6859 15.08840523 62211,6917.879,95.438,540.6,538.888,0.0
51126.0,STARLINK-3386,PAYLOAD,2023-03-03 09:22:35,15.08845244,0.0001548,53.2157,207.5434,83.1258,276.991,0.00061628,9.535e-05,0.0,0 STARLINK-3386,1 51126U 22005Y   23062.39069431  .00009535  00000-0  61628-3 0  9990,2 51126  53.2157 207.5434 0001548  83.1258 276.9910 15.08845244 63442,6917.864,95.437,540.8,538.658,0.0
51126.0,STARLINK-3386,PAYLOAD,2023-03-04 12:24:08,15.08842405,0.0001807,53.2149,202.4875,89.5189,270.601,1.2698e-05,-8.6e-07,0.0,0 STARLINK-3386,1 51126U 22005Y   23063.51676924 -.00000086  00000-0  12698-4 0  9993,2 51126  53.2149 202.4875 0001807  89.5189 270.6010 15.08842405 63614,6917.873,95.437,540.988,538.488,0.0
51126.0,STARLINK-3386,PAYLOAD,2023-03-04 18:45:41,15.08856985,0.0001522,53.2142,201.2955,93.2988,266.8178,0.00037909,5.753e-05,0.0,0 STARLINK-3386,1 51126U 22005Y   23063.78172460  .00005753  00000-0  37909-3 0  9994,2 51126  53.2142 201.2955 0001522  93.2988 266.8178 15.08856985 63650,6917.828,95.436,540.746,538.641,0.0
51126.0,STARLINK-3386,PAYLOAD,2023-03-05 07:28:46,15.08828632,0.0001606,53.215,198.9174,98.6689,261.4485,-0.00020911,-3.613e-05,0.0,0 STARLINK-3386,1 51126U 22005Y   23064.31165427 -.00003613  00000-0 -20911-3 0  9999,2 51126  53.2150 198.9174 0001606  98.6689 261.4485 15.08828632 63733,6917.915,95.438,540.891,538.669,0.0
51126.0,STARLINK-3386,PAYLOAD,2023-03-06 12:05:43,15.08849609,0.0001598,53.2167,193.5692,79.5853,280.5319,0.00061666,9.542e-05,0.0,0 STARLINK-3386,1 51126U 22005Y   23065.50397441  .00009542  00000-0  61666-3 0  9991,2 51126  53.2167 193.5692 0001598  79.5853 280.5319 15.08849609 63913,6917.851,95.437,540.821,538.611,0.0
51126.0,STARLINK-3386,PAYLOAD,2023-03-06 18:27:15,15.0887349,0.0001804,53.2156,192.3749,98.7362,261.3834,0.0011814,0.00018581,0.0,0 STARLINK-3386,1 51126U 22005Y   23065.76892758  .00018581  00000-0  11814-2 0  9992,2 51126  53.2156 192.3749 0001804  98.7362 261.3834 15.08873490 63957,6917.778,95.435,540.891,538.395,0.0
51126.0,STARLINK-3386,PAYLOAD,2023-03-07 00:48:48,15.08848482,0.0002815,53.216,191.1841,83.5935,276.5377,3.2848e-05,2.34e-06,0.0,0 STARLINK-3386,1 51126U 22005Y   23066.03389677  .00000234  00000-0  32848-4 0  9992,2 51126  53.2160 191.1841 0002815  83.5935 276.5377 15.08848482 63990,6917.854,95.437,541.667,537.772,0.0
